# From MPC118841
C/2018 L2 (ATLAS),e,67.3716,243.0228,56.2812,260.7391,0.0002341,0.99342986,0.0000,12/02.6854/2018,2000,g 10.0,4.0
# From MPC114603
P/2018 L4 (PANSTARRS),e,26.6253,145.1531,140.5806,4.941453,0.0897268,0.66005301,91.8958,05/21.0/2021,2000,g 17.5,4.0
# From MPC119996
P/2018 L5 (Leonard),e,2.2081,219.1118,93.8342,3.628014,0.1426266,0.36474379,158.5701,05/21.0/2021,2000,g 14.5,4.0
# From MPC117070
C/2018 M1 (Catalina),e,37.2965,339.4124,14.1730,21.37777,0.0099715,0.93907171,10.4262,05/21.0/2021,2000,g 15.5,4.0
# From MPC112393
C/2018 N1 (NEOWISE),e,159.4424,292.4517,354.6446,357.5790,0.0001458,0.99633552,0.0000,08/01.9923/2018,2000,g 15.5,4.0
# From MPC119996
C/2018 N2 (ASASSN),h,11/10.9853/2019,77.5306,25.2381,24.4091,1.000151,3.124931,2000,6.0,4.0
# From MPC114603
C/2018 O1 (ATLAS),e,154.0359,87.6601,162.6062,27.94744,0.0066710,0.94415536,6.6266,05/21.0/2021,2000,g 17.0,4.0
# From MPC114603
P/2018 P3 (PANSTARRS),e,8.9096,59.1775,305.8842,3.005967,0.1891158,0.41660882,180.4239,05/21.0/2021,2000,g 14.5,4.0
# From MPC114603
P/2018 P4 (PANSTARRS),e,23.1079,353.0699,8.2468,6.673649,0.0571688,0.45050969,52.8738,05/21.0/2021,2000,g 12.0,4.0
# From MPC118094
C/2018 P5 (PANSTARRS),e,7.2518,216.2368,131.7561,12.80647,0.0215060,0.64250588,17.5007,05/21.0/2021,2000,g 11.0,4.0
# From MPC118841
C/2018 R3 (Lemmon),e,69.7294,324.6413,112.8169,1627,0.0000150,0.99920801,0.0000,06/07.2684/2019,2000,g  9.5,4.0
# From MPC112393
C/2018 R4 (Fuls),e,11.6828,298.4437,345.2941,333.0777,0.0001621,0.99485085,0.0000,03/03.5772/2018,2000,g 14.0,4.0
# From MPC114603
C/2018 R5 (Lemmon),e,103.7482,171.1236,178.0637,22.78900,0.0090597,0.84097610,7.8094,05/21.0/2021,2000,g 11.5,4.0
# From MPC119996
C/2018 U1 (Lemmon),h,11/02.9361/2021,108.2966,75.4809,180.4491,1.001304,4.992904,2000,5.0,4.0
# From MPC114604
C/2018 V1 (Machholz-Fujikawa-Iwamoto),h,12/03.2042/2018,144.0544,128.8815,88.8558,1.000339,0.386621,2000,12.0,4.0
# From MPC115884
C/2018 V2 (ATLAS),e,159.1679,357.0854,318.9474,25.10188,0.0078369,0.90128627,7.1066,05/21.0/2021,2000,g 15.0,4.0
# From MPC114604
P/2018 VN2 (Leonard),e,18.2504,226.5026,138.7518,4.064545,0.1202780,0.47858173,129.9177,05/21.0/2021,2000,g 15.0,4.0
# From MPC117070
A/2018 V3,e,164.9780,308.6563,3.5331,122.6033,0.0007260,0.98906471,0.0000,09/08.6916/2019,2000,g 15.7,2.0
# From MPC114604
C/2018 V4 (Africano),e,69.0042,78.3575,359.9367,205.0788,0.0003356,0.98441212,0.0000,03/01.3937/2019,2000,g 12.5,4.0
# From MPC114604
P/2018 V5 (Trujillo-Sheppard),e,10.5863,171.2878,260.6840,8.954257,0.0367841,0.47470617,35.3571,05/21.0/2021,2000,g 12.5,4.0
# From MPC115884
C/2018 W1 (Catalina),e,83.2771,233.5988,251.2457,21.69834,0.0097513,0.93729251,7.2190,05/21.0/2021,2000,g 15.7,2.0
# From MPC119996
C/2018 W2 (Africano),h,09/05.6073/2019,116.6185,181.8431,157.9782,1.000402,1.455446,2000,9.5,4.0
# From MPC119996
C/2018 X2 (Fitzsimmons),e,23.0694,340.8291,162.0468,146.0460,0.0005584,0.98544018,0.0000,07/08.3606/2019,2000,g 12.0,4.0
# From MPC114604
C/2018 X3 (PANSTARRS),e,43.3734,78.8991,359.7474,12.37451,0.0226419,0.78215779,19.7535,05/21.0/2021,2000,g 14.5,4.0
# From MPC118842
C/2018 Y1 (Iwamoto),e,160.3991,147.5133,358.0097,139.6030,0.0005975,0.99079759,0.0000,02/06.9610/2019,2000,g 11.5,4.0
# From MPC114605
P/2018 Y2 (Africano),e,11.6825,297.2628,162.3315,7.460376,0.0483685,0.47862136,42.0994,05/21.0/2021,2000,g 11.5,4.0
# From MPC114605
P/2019 A1 (PANSTARRS),e,13.7442,312.3022,150.7725,5.121962,0.0850256,0.56834433,81.0622,05/21.0/2021,2000,g 16.0,4.0
# From MPC114605
P/2019 A2 (ATLAS),e,14.8607,139.4700,324.0279,5.721495,0.0720178,0.38135522,65.7230,05/21.0/2021,2000,g 10.5,4.0
# From MPC114605
P/2019 A3 (PANSTARRS),e,15.3685,31.2974,325.5048,3.146604,0.1765798,0.26565775,180.5606,05/21.0/2021,2000,g 16.0,4.0
# From MPC114605
P/2019 A4 (PANSTARRS),e,13.3183,119.2999,341.8802,2.615898,0.2329554,0.08799348,209.3531,05/21.0/2021,2000,g 15.0,4.0
# From MPC118842
C/2019 A5 (PANSTARRS),e,67.5591,146.6276,355.9512,21.57159,0.0098374,0.70692384,7.0107,05/21.0/2021,2000,g  9.5,4.0
# From MPC114605
P/2019 A6 (Lemmon-PANSTARRS),e,33.2324,280.2620,156.1994,5.361878,0.0793832,0.63904838,79.0539,05/21.0/2021,2000,g 16.0,4.0
# From MPC114605
P/2019 A7 (PANSTARRS),e,17.7748,280.5219,119.2402,3.185592,0.1733480,0.16118666,213.2246,05/21.0/2021,2000,g 13.5,4.0
# From MPC115884
P/2019 A8 (PANSTARRS),e,3.3929,128.2981,23.5956,3.316683,0.1631729,0.48866187,149.5585,05/21.0/2021,2000,g 16.0,4.0
# From MPC118842
C/2019 A9 (PANSTARRS),e,84.1735,278.3840,237.9511,39.56558,0.0039603,0.96383691,2.6320,05/21.0/2021,2000,g 15.0,4.0
# From MPC114606
C/2019 B1 (Africano),e,123.3645,290.4339,174.8357,144.1290,0.0005696,0.98892201,0.0000,03/19.6501/2019,2000,g 16.0,4.0
# From MPC115885
P/2019 B2 (Groeller),e,16.8714,176.1243,359.7024,3.871018,0.1294095,0.37274038,92.0452,05/21.0/2021,2000,g 14.5,4.0
# From MPC115885
C/2019 B3 (PANSTARRS),h,01/20.1072/2021,66.5388,358.4338,263.9119,1.002173,6.823682,2000,5.5,4.0
# From MPEC 2020-AA5
C/2019 C1,e,36.0292,212.3866,319.1829,727.0169,0.0000503,0.99094804,0.0000,05/05.4893/2020,2000,g 10.0,4.0
# From MPC118842
C/2019 D1 (Flewelling),e,34.0720,231.7123,70.5420,142.1394,0.0005816,0.98888816,0.0000,05/11.8673/2019,2000,g 13.0,4.0
# From MPC119997
C/2019 E3 (ATLAS),h,11/12.9585/2023,84.2949,347.2472,280.6225,1.003424,10.314522,2000,2.5,4.0
# From MPC119997
C/2019 F1 (ATLAS-Africano),h,06/22.8246/2021,54.1750,38.7251,251.1286,1.003747,3.595553,2000,5.5,4.0
# From MPC119997
C/2019 F2 (ATLAS),e,19.2124,175.6256,11.4220,16.73257,0.0143999,0.86609193,8.9270,05/21.0/2021,2000,g 12.0,4.0
# From MPEC 2020-AA5
A/2019 G2,e,159.2060,208.1511,82.6258,634.8624,0.0000616,0.99639178,0.0000,12/09.9445/2019,2000,g 16.5,2.0
# From MPC118094
A/2019 G4,h,09/16.0989/2018,138.3861,130.4642,287.8796,1.001755,5.857761,2000,13.0,2.0
# From MPC114607
P/2019 GG21 (PANSTARRS),e,6.0841,340.5727,208.5597,7.474576,0.0482308,0.47284488,35.7385,05/21.0/2021,2000,g 12.0,4.0
# From MPC115885
C/2019 H1 (NEOWISE),e,104.5629,269.2027,19.3322,237.5774,0.0002692,0.99222939,0.0000,04/27.8349/2019,2000,g 15.5,4.0
# From MPC118842
C/2019 J1 (Lemmon),e,24.5503,98.0948,167.7905,69.53199,0.0016999,0.96432958,1.3139,05/21.0/2021,2000,g 12.0,4.0
# From MPC115885
C/2019 J2 (Palomar),e,105.1618,25.4879,98.7177,679.5107,0.0000556,0.99745811,0.0000,07/19.7145/2019,2000,g 13.0,4.0
# From MPC117071
C/2019 J3 (ATLAS),h,08/02.0047/2019,131.4087,270.5323,16.5966,1.000386,2.374487,2000,13.5,4.0
# From MPC117071
C/2019 JU6 (ATLAS),e,148.3100,21.7496,94.9223,344.4187,0.0001542,0.99405869,0.0000,05/31.9342/2019,2000,g 14.5,4.0
# From MPC119997
C/2019 K1 (ATLAS),h,02/12.9941/2020,87.1347,73.3767,265.7133,1.000061,2.012650,2000,10.0,4.0
# From MPC119997
C/2019 K4 (Ye),e,105.3004,180.1583,139.7757,1423,0.0000184,0.99841120,0.0000,06/16.2346/2019,2000,g 12.5,4.0
# From MPC119997
C/2019 K5 (Young),e,15.3160,177.1519,174.9915,159.4470,0.0004895,0.98723208,0.0000,06/22.9173/2019,2000,g 13.0,4.0
# From MPC134066
C/2019 K6 (PANSTARRS),e,132.3803,42.9490,187.6348,1807,0.0000128,0.99782577,0.0000,05/20.2670/2020,2000,g 11.5,4.0
# From MPC118095
C/2019 K7 (Smith),e,103.5400,307.9300,27.3222,27518,0.0000002,0.99983736,0.0000,06/17.0547/2020,2000,g  6.2,4.0
# From MPC119997
C/2019 K8 (ATLAS),e,93.2170,291.0454,85.3736,2594,0.0000075,0.99876820,0.0000,07/21.4404/2019,2000,g 11.5,4.0
# From MPC118095
C/2019 L1 (PANSTARRS),e,9.9917,254.4162,49.9706,9.837982,0.0319407,0.70603434,20.7173,05/21.0/2021,2000,g 13.5,4.0
# From MPC115886
C/2019 L2 (NEOWISE),e,152.1878,12.5731,18.7542,24.85583,0.0079536,0.93477818,6.2058,05/21.0/2021,2000,g 16.0,4.0
# From MPC119997
C/2019 L3 (ATLAS),h,01/09.6278/2022,48.3652,290.7875,171.6225,1.001249,3.554208,2000,4.5,4.0
# From MPC118095
C/2019 LB7 (Kleyna),e,164.2912,3.9025,336.4797,34.66010,0.0048301,0.92834843,3.7974,05/21.0/2021,2000,g 17.0,4.0
# From MPEC 2021-J28
P/2019 M2 (ATLAS),e,12.2818,307.5980,332.5744,3.027047,0.1871438,0.64823447,130.6977,05/21.0/2021,2000,g 21.2,4.0
# From MPC118095
C/2019 M3 (ATLAS),h,01/02.4568/2019,99.4741,154.9043,87.9122,1.000860,2.418881,2000,12.2,4.0
# From MPEC 2021-J28
C/2019 N1 (ATLAS),e,82.4283,13.5744,193.4460,11213,0.0000008,0.99984798,0.0000,12/01.8025/2020,2000,g  7.5,4.0
# From MPEC 2021-J28
A/2019 O2,e,93.2883,48.3075,129.6634,57.34339,0.0022698,0.83114393,358.4411,05/21.0/2021,2000,g  9.5,2.0
# From MPEC 2021-J28
C/2019 O3 (Palomar),h,03/08.1558/2021,89.8158,300.3820,60.0592,1.002522,8.819480,2000,3.5,4.0
# From MPC117072
A/2019 O4,e,115.0885,354.9141,61.8415,32.90256,0.0052223,0.88921160,2.4330,05/21.0/2021,2000,g 15.5,2.0
# From MPEC 2021-J28
C/2019 Q1 (Lemmon),h,07/20.2884/2020,155.7271,42.4330,56.0849,1.001412,4.998147,2000,8.5,4.0
# From MPC117072
A/2019 Q2,e,159.0222,188.0334,176.2974,57.16964,0.0022801,0.97800670,0.0000,07/22.2232/2019,2000,g 18.0,2.0
# From MPEC 2021-J28
C/2019 Q3 (PANSTARRS),h,08/20.6816/2018,65.5155,151.3236,152.6412,1.004089,7.252735,2000,8.5,4.0
# From MPC117072
P/2019 S2 (PANSTARRS),e,10.4724,93.1326,216.9217,4.737233,0.0955910,0.20672593,78.2981,05/21.0/2021,2000,g 13.5,4.0
# From MPEC 2021-J28
P/2019 S3 (PANSTARRS),e,8.6943,150.1599,212.9869,3.414950,0.1561808,0.47100982,98.9741,05/21.0/2021,2000,g 18.3,4.0
# From MPEC 2021-J28
C/2019 S4 (Lemmon),e,92.0276,63.1628,71.3653,233.7839,0.0002757,0.98527656,0.0000,04/07.9477/2020,2000,g 11.0,4.0
# From MPEC 2021-J28
A/2019 T1,e,120.8700,6.9525,91.0413,38.27163,0.0041628,0.88812484,0.5273,05/21.0/2021,2000,g 13.0,2.0
# From MPC134066
C/2019 T2 (Lemmon),e,111.4892,155.6430,239.3864,1904,0.0000119,0.99861012,0.0000,04/22.2754/2021,2000,g  9.0,4.0
# From MPEC 2021-J28
C/2019 T3 (ATLAS),e,121.8623,139.5207,112.2846,3179,0.0000055,0.99812926,0.0000,03/02.7854/2021,2000,g  6.8,4.0
# From MPEC 2021-J28
C/2019 T4 (ATLAS),e,53.6204,199.9482,351.2151,1029,0.0000299,0.99587624,0.0000,06/09.2510/2022,2000,g  5.0,4.0
# From MPEC 2021-J28
